OBJECT_NAME,OBJECT_ID,EPOCH,MEAN_MOTION,ECCENTRICITY,INCLINATION,RA_OF_ASC_NODE,ARG_OF_PERICENTER,MEAN_ANOMALY,EPHEMERIS_TYPE,CLASSIFICATION_TYPE,NORAD_CAT_ID,ELEMENT_SET_NO,REV_AT_EPOCH,BSTAR,MEAN_MOTION_DOT,MEAN_MOTION_DDOT
CENTISPACE-1 GROUP 05 OBJECT J,2026-138J,2026-06-28T12:11:24.820224,14.15849609,.00084289,55.1410,239.3343,304.8309,55.1872,0,U,69636,999,159,-.15421034E-3,-.458E-5,0
VICTUS HAZE PUMA,2026-142A,2026-06-28T15:57:07.563168,15.20733956,.00209841,97.4480,77.1574,285.9921,73.9003,0,U,69646,999,141,.18217973E-3,.396E-4,0
HOKUSHIN-1,1998-067YH,2026-06-28T11:20:52.066176,15.50308217,.00062006,51.6317,244.1809,265.1058,94.9223,0,U,69648,999,140,.37189423E-3,.21068E-3,0
STARLINK-37656,2026-143A,2026-06-28T14:00:01.000224,15.84585864,.00016154,97.2836,222.9801,89.9682,37.9494,0,U,69649,999,229,-.11735589E-1,-.2277641E-1,0
STARLINK-37646,2026-143B,2026-06-27T20:46:08.820768,15.90946695,.00015726,97.2848,222.2195,43.9374,316.2025,0,U,69650,999,217,-.30949147E-2,-.963099E-2,.2776866E-3
STARLINK-37749,2026-143C,2026-06-28T14:00:01.000224,15.88456841,.00016572,97.2840,222.9922,94.9847,60.2764,0,U,69651,999,229,-.95423783E-2,-.2247156E-1,0
STARLINK-37819,2026-143D,2026-06-28T14:00:01.000224,15.85699293,.00015749,97.2839,222.9850,83.6416,56.3761,0,U,69652,999,229,-.11448606E-1,-.2334107E-1,0
STARLINK-37729,2026-143E,2026-06-28T14:00:01.000224,15.87515723,.00011223,97.2841,222.9892,78.6728,71.6451,0,U,69653,999,229,-.33668985E-2,-.809737E-2,0
STARLINK-37838,2026-143F,2026-06-28T14:00:01.000224,15.85875650,.00016549,97.2839,222.9863,94.5713,48.8419,0,U,69654,999,229,-.11166737E-1,-.230272E-1,0
STARLINK-37884,2026-143G,2026-06-28T14:00:01.000224,15.90331329,.00016271,97.2840,222.9932,76.4876,81.7511,0,U,69655,999,229,-.60452112E-2,-.1812622E-1,.8916367E-3
STARLINK-37876,2026-143H,2026-06-28T14:00:01.000224,15.88072957,.00015634,97.2841,222.9939,93.8887,66.1419,0,U,69656,999,219,-.96711735E-2,-.2235895E-1,0
STARLINK-37784,2026-143J,2026-06-28T14:00:01.000224,15.87788607,.00016114,97.2844,222.9953,94.1554,69.1762,0,U,69657,999,219,-.97091207E-2,-.2216544E-1,0
STARLINK-37851,2026-143K,2026-06-28T14:00:01.000224,15.89575337,.00013521,97.2840,222.9954,94.4104,70.5469,0,U,69658,999,218,-.58533766E-2,-.1691121E-1,.77788778E-3
STARLINK-37229,2026-143L,2026-06-28T14:00:01.000224,15.85680796,.00016901,97.2840,222.9894,83.9921,67.3603,0,U,69659,999,223,-.11588155E-1,-.2415661E-1,0
STARLINK-37556,2026-143M,2026-06-28T14:00:01.000224,15.86613023,.00015362,97.2842,222.9926,98.2277,60.1256,0,U,69660,999,223,-.10784083E-1,-.2305214E-1,0
STARLINK-37867,2026-143N,2026-06-28T14:00:01.000224,15.90082686,.00013575,97.2841,222.9986,94.4555,77.6242,0,U,69661,999,219,-.5591522E-2,-.1657433E-1,.75309359E-3
STARLINK-37852,2026-143P,2026-06-28T14:00:01.000224,15.86594392,.00015021,97.2841,222.9934,94.7191,66.7036,0,U,69662,999,219,-.10897363E-1,-.2323587E-1,0
STARLINK-37554,2026-143Q,2026-06-28T14:00:01.000224,15.90440695,.00015634,97.2840,223.0014,101.7920,76.7202,0,U,69663,999,223,-.87642227E-2,-.2632496E-1,.18167576E-2
STARLINK-37830,2026-143R,2026-06-28T14:00:01.000224,15.86786034,.00016752,97.2838,222.9952,90.2785,75.1330,0,U,69664,999,218,-.10915195E-1,-.2345481E-1,0
STARLINK-37837,2026-143S,2026-06-28T14:00:01.000224,15.90565175,.00015239,97.2840,223.0023,105.7516,75.8039,0,U,69665,999,219,-.87457423E-2,-.2643461E-1,.18342311E-2
STARLINK-37943,2026-143T,2026-06-28T14:00:01.000224,15.88390255,.00015929,97.2841,223.0007,94.1181,84.0991,0,U,69666,999,219,-.95754531E-2,-.2247267E-1,0
STARLINK-37941,2026-143U,2026-06-28T14:00:01.000224,15.88226584,.00015817,97.2840,223.0005,94.2541,82.9789,0,U,69667,999,219,-.97349951E-2,-.2263049E-1,0
STARLINK-37930,2026-143V,2026-06-28T14:00:01.000224,15.88579990,.00016123,97.2843,223.0026,94.6966,86.9827,0,U,69668,999,218,-.9848129E-2,-.2319575E-1,0
STARLINK-37945,2026-143W,2026-06-28T14:00:01.000224,15.89282832,.00015761,97.2843,223.0049,101.3527,85.8160,0,U,69669,999,219,-.90472279E-2,-.2225184E-1,0
STARLINK-37948,2026-143X,2026-06-28T14:00:01.000224,15.94466644,.00009067,97.2844,223.0121,91.0522,113.5783,0,U,69670,999,219,-.15514386E-2,-.580872E-2,.1120072E-3
STARLINK-37949,2026-143Y,2026-06-28T14:00:01.000224,15.92250869,.00015524,97.2844,223.0108,90.6650,111.6276,0,U,69671,999,219,-.68230303E-2,-.225029E-1,.13670638E-2
STARLINK-37946,2026-143Z,2026-06-28T14:00:01.000224,15.91790337,.00011608,97.2845,223.0071,106.3348,85.9701,0,U,69672,999,219,-.37888561E-2,-.1228482E-1,.43988118E-3
