CENTISPACE-1 GROUP 05 O*
1 69636U 26138J   26179.50792616 -.00000458  00000+0 -15421-3 0  9995
2 69636  55.1410 239.3343 0008428 304.8309  55.1872 14.15849609  1594
VICTUS HAZE PUMA        
1 69646U 26142A   26179.66467087  .00003960  00000+0  18218-3 0  9995
2 69646  97.4480  77.1574 0020984 285.9921  73.9003 15.20733956  1414
HOKUSHIN-1              
1 69648U 98067YH  26179.47282484  .00021068  00000+0  37189-3 0  9994
2 69648  51.6317 244.1809 0006200 265.1058  94.9223 15.50308217  1407
STARLINK-37656          
1 69649U 26143A   26179.58334491 -.02277641  00000+0 -11736-1 0  9991
2 69649  97.2836 222.9801 0001615  89.9682  37.9494 15.84585864  2293
STARLINK-37646          
1 69650U 26143B   26178.86537987 -.00963099  27769-3 -30949-2 0  9998
2 69650  97.2848 222.2195 0001572  43.9374 316.2025 15.90946695  2177
STARLINK-37749          
1 69651U 26143C   26179.58334491 -.02247156  00000+0 -95424-2 0  9999
2 69651  97.2840 222.9922 0001657  94.9847  60.2764 15.88456841  2295
STARLINK-37819          
1 69652U 26143D   26179.58334491 -.02334107  00000+0 -11449-1 0  9997
2 69652  97.2839 222.9850 0001574  83.6416  56.3761 15.85699293  2299
STARLINK-37729          
1 69653U 26143E   26179.58334491 -.00809737  00000+0 -33669-2 0  9991
2 69653  97.2841 222.9892 0001122  78.6728  71.6451 15.87515723  2291
STARLINK-37838          
1 69654U 26143F   26179.58334491 -.02302720  00000+0 -11167-1 0  9992
2 69654  97.2839 222.9863 0001654  94.5713  48.8419 15.85875650  2294
STARLINK-37884          
1 69655U 26143G   26179.58334491 -.01812622  89164-3 -60452-2 0  9993
2 69655  97.2840 222.9932 0001627  76.4876  81.7511 15.90331329  2298
STARLINK-37876          
1 69656U 26143H   26179.58334491 -.02235895  00000+0 -96712-2 0  9992
2 69656  97.2841 222.9939 0001563  93.8887  66.1419 15.88072957  2190
STARLINK-37784          
1 69657U 26143J   26179.58334491 -.02216544  00000+0 -97091-2 0  9994
2 69657  97.2844 222.9953 0001611  94.1554  69.1762 15.87788607  2198
STARLINK-37851          
1 69658U 26143K   26179.58334491 -.01691121  77789-3 -58534-2 0  9993
2 69658  97.2840 222.9954 0001352  94.4104  70.5469 15.89575337  2187
STARLINK-37229          
1 69659U 26143L   26179.58334491 -.02415661  00000+0 -11588-1 0  9993
2 69659  97.2840 222.9894 0001690  83.9921  67.3603 15.85680796  2238
STARLINK-37556          
1 69660U 26143M   26179.58334491 -.02305214  00000+0 -10784-1 0  9994
2 69660  97.2842 222.9926 0001536  98.2277  60.1256 15.86613023  2235
STARLINK-37867          
1 69661U 26143N   26179.58334491 -.01657433  75309-3 -55915-2 0  9991
2 69661  97.2841 222.9986 0001357  94.4555  77.6242 15.90082686  2192
STARLINK-37852          
1 69662U 26143P   26179.58334491 -.02323587  00000+0 -10897-1 0  9994
2 69662  97.2841 222.9934 0001502  94.7191  66.7036 15.86594392  2194
STARLINK-37554          
1 69663U 26143Q   26179.58334491 -.02632496  18168-2 -87642-2 0  9997
2 69663  97.2840 223.0014 0001563 101.7920  76.7202 15.90440695  2233
STARLINK-37830          
1 69664U 26143R   26179.58334491 -.02345481  00000+0 -10915-1 0  9994
2 69664  97.2838 222.9952 0001675  90.2785  75.1330 15.86786034  2189
STARLINK-37837          
1 69665U 26143S   26179.58334491 -.02643461  18342-2 -87457-2 0  9991
2 69665  97.2840 223.0023 0001523 105.7516  75.8039 15.90565175  2190
STARLINK-37943          
1 69666U 26143T   26179.58334491 -.02247267  00000+0 -95755-2 0  9995
2 69666  97.2841 223.0007 0001592  94.1181  84.0991 15.88390255  2190
STARLINK-37941          
1 69667U 26143U   26179.58334491 -.02263049  00000+0 -97350-2 0  9995
2 69667  97.2840 223.0005 0001581  94.2541  82.9789 15.88226584  2192
STARLINK-37930          
1 69668U 26143V   26179.58334491 -.02319575  00000+0 -98481-2 0  9998
2 69668  97.2843 223.0026 0001612  94.6966  86.9827 15.88579990  2187
STARLINK-37945          
1 69669U 26143W   26179.58334491 -.02225184  00000+0 -90472-2 0  9993
2 69669  97.2843 223.0049 0001576 101.3527  85.8160 15.89282832  2197
STARLINK-37948          
1 69670U 26143X   26179.58334491 -.00580872  11201-3 -15514-2 0  9994
2 69670  97.2844 223.0121 0000906  91.0522 113.5783 15.94466644  2198
STARLINK-37949          
1 69671U 26143Y   26179.58334491 -.02250290  13671-2 -68230-2 0  9990
2 69671  97.2844 223.0108 0001552  90.6650 111.6276 15.92250869  2193
STARLINK-37946          
1 69672U 26143Z   26179.58334491 -.01228482  43988-3 -37889-2 0  9999
2 69672  97.2845 223.0071 0001160 106.3348  85.9701 15.91790337  2192
